[{"col1":"1 39446U 13066AG  25071.83192068  .00010956  00000+0  10667-2 0  9996"},{"col1":"2 39446  97.8149  23.3716 0056677  54.5728 306.0764 14.91469025608674"},{"col1":"0.0"},{"col1":"0.0"},{"col1":"0.0"}]
